{
  "type": "FeatureCollection",
  "features": [
    {
      "type": "Feature",
      "properties": {
        "norad_id": 43602,
        "name": "BEIDOU-3 M12 (C26)",
        "group": "beidou",
        "lat": 51.04509474298029,
        "lon": -56.12576446063282,
        "alt_km": 21511.683427249573,
        "timestamp": "2025-12-17T13:48:37.820243+00:00",
        "meta_object_name": "BEIDOU-3 M12 (C26)",
        "meta_object_id": "2018-067A",
        "meta_epoch": "2025-12-15T19:20:53.031840",
        "meta_mean_motion": 1.86227731,
        "meta_eccentricity": 0.00092007,
        "meta_inclination": 54.1833,
        "meta_ra_of_asc_node": 187.259,
        "meta_arg_of_pericenter": 40.7418,
        "meta_mean_anomaly": 319.394,
        "meta_ephemeris_type": 0,
        "meta_classification_type": "U",
        "meta_norad_cat_id": 43602,
        "meta_element_set_no": 999,
        "meta_rev_at_epoch": 4970,
        "meta_bstar": 0,
        "meta_mean_motion_dot": 1.15e-06,
        "meta_mean_motion_ddot": 0,
        "tle_line1": "1 43602U 18067A   25349.80616935  .00000115  00000+0  00000+0 0  9993",
        "tle_line2": "2 43602  54.1833 187.2590 0009200  40.7418 319.3940  1.86227731 49704"
      },
      "geometry": {
        "type": "Point",
        "coordinates": [
          -56.12576446063282,
          51.04509474298029
        ]
      }
    },
    {
      "type": "Feature",
      "properties": {
        "norad_id": 43603,
        "name": "BEIDOU-3 M11 (C25)",
        "group": "beidou",
        "lat": 12.928043120732369,
        "lon": -163.28382092628996,
        "alt_km": 21512.358503755902,
        "timestamp": "2025-12-17T13:48:37.820254+00:00",
        "meta_object_name": "BEIDOU-3 M11 (C25)",
        "meta_object_id": "2018-067B",
        "meta_epoch": "2025-12-17T00:21:01.909152",
        "meta_mean_motion": 1.86227265,
        "meta_eccentricity": 0.00055837,
        "meta_inclination": 54.1803,
        "meta_ra_of_asc_node": 187.182,
        "meta_arg_of_pericenter": 36.4567,
        "meta_mean_anomaly": 323.6478,
        "meta_ephemeris_type": 0,
        "meta_classification_type": "U",
        "meta_norad_cat_id": 43603,
        "meta_element_set_no": 999,
        "meta_rev_at_epoch": 4975,
        "meta_bstar": 0,
        "meta_mean_motion_dot": 1.14e-06,
        "meta_mean_motion_ddot": 0,
        "tle_line1": "1 43603U 18067B   25351.01460543  .00000114  00000+0  00000+0 0  9991",
        "tle_line2": "2 43603  54.1803 187.1820 0005583  36.4567 323.6478  1.86227265 49755"
      },
      "geometry": {
        "type": "Point",
        "coordinates": [
          -163.28382092628996,
          12.928043120732369
        ]
      }
    },
    {
      "type": "Feature",
      "properties": {
        "norad_id": 43622,
        "name": "BEIDOU-3 M13 (C32)",
        "group": "beidou",
        "lat": 36.283187187849684,
        "lon": 97.75868288989255,
        "alt_km": 21528.32443862952,
        "timestamp": "2025-12-17T13:48:37.820266+00:00",
        "meta_object_name": "BEIDOU-3 M13 (C32)",
        "meta_object_id": "2018-072A",
        "meta_epoch": "2025-12-15T21:31:53.202720",
        "meta_mean_motion": 1.86231028,
        "meta_eccentricity": 0.00060178,
        "meta_inclination": 56.4622,
        "meta_ra_of_asc_node": 68.7153,
        "meta_arg_of_pericenter": 299.0223,
        "meta_mean_anomaly": 60.938,
        "meta_ephemeris_type": 0,
        "meta_classification_type": "U",
        "meta_norad_cat_id": 43622,
        "meta_element_set_no": 999,
        "meta_rev_at_epoch": 4924,
        "meta_bstar": 0,
        "meta_mean_motion_dot": -8.2e-07,
        "meta_mean_motion_ddot": 0,
        "tle_line1": "1 43622U 18072A   25349.89714355 -.00000082  00000+0  00000+0 0  9999",
        "tle_line2": "2 43622  56.4622  68.7153 0006017 299.0223  60.9380  1.86231028 49241"
      },
      "geometry": {
        "type": "Point",
        "coordinates": [
          97.75868288989255,
          36.283187187849684
        ]
      }
    },
    {
      "type": "Feature",
      "properties": {
        "norad_id": 43623,
        "name": "BEIDOU-3 M14 (C33)",
        "group": "beidou",
        "lat": 35.80698820643113,
        "lon": -139.86829349520562,
        "alt_km": 21532.42205740424,
        "timestamp": "2025-12-17T13:48:37.820276+00:00",
        "meta_object_name": "BEIDOU-3 M14 (C33)",
        "meta_object_id": "2018-072B",
        "meta_epoch": "2025-12-14T16:31:43.622976",
        "meta_mean_motion": 1.86230968,
        "meta_eccentricity": 0.00033007,
        "meta_inclination": 56.4633,
        "meta_ra_of_asc_node": 68.7492,
        "meta_arg_of_pericenter": 334.4118,
        "meta_mean_anomaly": 25.5906,
        "meta_ephemeris_type": 0,
        "meta_classification_type": "U",
        "meta_norad_cat_id": 43623,
        "meta_element_set_no": 999,
        "meta_rev_at_epoch": 4921,
        "meta_bstar": 0,
        "meta_mean_motion_dot": -8.3e-07,
        "meta_mean_motion_ddot": 0,
        "tle_line1": "1 43623U 18072B   25348.68869934 -.00000083  00000+0  00000+0 0  9991",
        "tle_line2": "2 43623  56.4633  68.7492 0003300 334.4118  25.5906  1.86230968 49219"
      },
      "geometry": {
        "type": "Point",
        "coordinates": [
          -139.86829349520562,
          35.80698820643113
        ]
      }
    },
    {
      "type": "Feature",
      "properties": {
        "norad_id": 43647,
        "name": "BEIDOU-3 M16 (C35)",
        "group": "beidou",
        "lat": 23.69797903609792,
        "lon": -35.260123442399994,
        "alt_km": 21505.077448408232,
        "timestamp": "2025-12-17T13:48:37.820287+00:00",
        "meta_object_name": "BEIDOU-3 M16 (C35)",
        "meta_object_id": "2018-078A",
        "meta_epoch": "2025-12-16T10:58:34.332384",
        "meta_mean_motion": 1.86232417,
        "meta_eccentricity": 0.00072794,
        "meta_inclination": 54.2586,
        "meta_ra_of_asc_node": 306.3912,
        "meta_arg_of_pericenter": 19.6101,
        "meta_mean_anomaly": 340.4043,
        "meta_ephemeris_type": 0,
        "meta_classification_type": "U",
        "meta_norad_cat_id": 43647,
        "meta_element_set_no": 999,
        "meta_rev_at_epoch": 4875,
        "meta_bstar": 0,
        "meta_mean_motion_dot": -9.5e-07,
        "meta_mean_motion_ddot": 0,
        "tle_line1": "1 43647U 18078A   25350.45734181 -.00000095  00000+0  00000+0 0  9999",
        "tle_line2": "2 43647  54.2586 306.3912 0007279  19.6101 340.4043  1.86232417 48759"
      },
      "geometry": {
        "type": "Point",
        "coordinates": [
          -35.260123442399994,
          23.69797903609792
        ]
      }
    },
    {
      "type": "Feature",
      "properties": {
        "norad_id": 43648,
        "name": "BEIDOU-3 M15 (C34)",
        "group": "beidou",
        "lat": -42.9143934777171,
        "lon": -95.66984457670422,
        "alt_km": 21530.36006004965,
        "timestamp": "2025-12-17T13:48:37.820298+00:00",
        "meta_object_name": "BEIDOU-3 M15 (C34)",
        "meta_object_id": "2018-078B",
        "meta_epoch": "2025-12-16T14:04:39.514944",
        "meta_mean_motion": 1.86232061,
        "meta_eccentricity": 0.00038021,
        "meta_inclination": 54.2541,
        "meta_ra_of_asc_node": 306.3868,
        "meta_arg_of_pericenter": 19.0085,
        "meta_mean_anomaly": 340.9923,
        "meta_ephemeris_type": 0,
        "meta_classification_type": "U",
        "meta_norad_cat_id": 43648,
        "meta_element_set_no": 999,
        "meta_rev_at_epoch": 4877,
        "meta_bstar": 0,
        "meta_mean_motion_dot": -9.5e-07,
        "meta_mean_motion_ddot": 0,
        "tle_line1": "1 43648U 18078B   25350.58656846 -.00000095  00000+0  00000+0 0  9995",
        "tle_line2": "2 43648  54.2541 306.3868 0003802  19.0085 340.9923  1.86232061 48773"
      },
      "geometry": {
        "type": "Point",
        "coordinates": [
          -95.66984457670422,
          -42.9143934777171
        ]
      }
    },
    {
      "type": "Feature",
      "properties": {
        "norad_id": 43683,
        "name": "BEIDOU-3 G1 (C59)",
        "group": "beidou",
        "lat": -1.2504916658674925,
        "lon": 73.65238475120151,
        "alt_km": 35785.61782979092,
        "timestamp": "2025-12-17T13:48:37.820309+00:00",
        "meta_object_name": "BEIDOU-3 G1 (C59)",
        "meta_object_id": "2018-085A",
        "meta_epoch": "2025-12-17T05:25:52.953312",
        "meta_mean_motion": 1.00269602,
        "meta_eccentricity": 0.00016351,
        "meta_inclination": 2.6187,
        "meta_ra_of_asc_node": 102.8353,
        "meta_arg_of_pericenter": 50.2026,
        "meta_mean_anomaly": 154.5877,
        "meta_ephemeris_type": 0,
        "meta_classification_type": "U",
        "meta_norad_cat_id": 43683,
        "meta_element_set_no": 999,
        "meta_rev_at_epoch": 2623,
        "meta_bstar": 0,
        "meta_mean_motion_dot": -2.55e-06,
        "meta_mean_motion_ddot": 0,
        "tle_line1": "1 43683U 18085A   25351.22630733 -.00000255  00000+0  00000+0 0  9999",
        "tle_line2": "2 43683   2.6187 102.8353 0001635  50.2026 154.5877  1.00269602 26238"
      },
      "geometry": {
        "type": "Point",
        "coordinates": [
          73.65238475120151,
          -1.2504916658674925
        ]
      }
    }
  ]
}